{"type": "FeatureCollection", "features": [{"type": "Feature", "properties": {"type": "node", "id": 830609255, "tags": {"amenity": "cafe", "name": "Caf\u00e9 Sincera", "smoking": "no"}}, "geometry": {"type": "Point", "coordinates": [-47.8900512, -15.7526149]}}, {"type": "Feature", "properties": {"type": "node", "id": 1532856975, "tags": {"addr:street": "CLN 408", "amenity": "cafe", "name": "Senhoritas"}}, "geometry": {"type": "Point", "coordinates": [-47.8791123, -15.7600089]}}, {"type": "Feature", "properties": {"type": "node", "id": 1785424776, "tags": {"amenity": "cafe", "name": "Caf\u00e9 Savana"}}, "geometry": {"type": "Point", "coordinates": [-47.8933345, -15.7399443]}}, {"type": "Feature", "properties": {"type": "node", "id": 2691239509, "tags": {"addr:place": "Asa Sul", "addr:street": "Cls 410", "amenity": "cafe", "cuisine": "pizza", "name": "Gentil"}}, "geometry": {"type": "Point", "coordinates": [-47.90628, -15.8268]}}, {"type": "Feature", "properties": {"type": "node", "id": 3051977281, "tags": {"amenity": "cafe", "internet_access": "no", "name": "Amor \u00e0 Torta", "opening_hours": "Mo-Fr 07:30-19:30; Sa 08:00-18:00", "wheelchair": "yes"}}, "geometry": {"type": "Point", "coordinates": [-47.8913837, -15.7567262]}}, {"type": "Feature", "properties": {"type": "node", "id": 3089963930, "tags": {"amenity": "cafe", "name": "Cafezinho Express"}}, "geometry": {"type": "Point", "coordinates": [-47.886423, -15.786985]}}, {"type": "Feature", "properties": {"type": "node", "id": 3093838425, "tags": {"addr:street": "CLN 204", "amenity": "cafe", "name": "Candy House", "wheelchair": "yes"}}, "geometry": {"type": "Point", "coordinates": [-47.878313, -15.7770943]}}, {"type": "Feature", "properties": {"type": "node", "id": 3093842234, "tags": {"amenity": "cafe", "brand": "Fran's Caf\u00e9", "brand:wikidata": "Q62075645", "cuisine": "coffee_shop", "internet_access": "wlan", "internet_access:fee": "no", "name": "Fran's Caf\u00e9", "opening_hours": "24/7", "takeaway": "yes"}}, "geometry": {"type": "Point", "coordinates": [-47.8825355, -15.7575012]}}, {"type": "Feature", "properties": {"type": "node", "id": 3095008557, "tags": {"addr:street": "CLN 406", "amenity": "cafe", "name": "Sebinho"}}, "geometry": {"type": "Point", "coordinates": [-47.8779077, -15.7665684]}}, {"type": "Feature", "properties": {"type": "node", "id": 3139274344, "tags": {"amenity": "cafe"}}, "geometry": {"type": "Point", "coordinates": [-47.8388265, -15.8145074]}}, {"type": "Feature", "properties": {"type": "node", "id": 3161293041, "tags": {"amenity": "cafe", "name": "Caf\u00e9 Cobog\u00f3"}}, "geometry": {"type": "Point", "coordinates": [-47.8908733, -15.7749509]}}, {"type": "Feature", "properties": {"type": "node", "id": 3190786485, "tags": {"amenity": "cafe", "name": "Moebius Caf\u00e9"}}, "geometry": {"type": "Point", "coordinates": [-47.892084, -15.7461875]}}, {"type": "Feature", "properties": {"type": "node", "id": 3192140335, "tags": {"addr:street": "CLN 407", "amenity": "cafe", "name": "Cafezinho"}}, "geometry": {"type": "Point", "coordinates": [-47.877285, -15.7661003]}}, {"type": "Feature", "properties": {"type": "node", "id": 3200216679, "tags": {"addr:street": "CLN 413", "amenity": "cafe", "internet_access": "wlan", "level": "0", "name": "Clandestino", "opening_hours": "Mo 09:00-21:00; We-Sa 09:00-21:00; Su 09:00-15:00", "outdoor_seating": "yes", "smoking": "no", "website": "http://www.cafeclandestino.com.br"}}, "geometry": {"type": "Point", "coordinates": [-47.8836644, -15.7470931]}}, {"type": "Feature", "properties": {"type": "node", "id": 3211680213, "tags": {"amenity": "cafe", "name": "Genaro - jazz burger caf\u00e9"}}, "geometry": {"type": "Point", "coordinates": [-47.8913941, -15.74597]}}, {"type": "Feature", "properties": {"type": "node", "id": 3222516874, "tags": {"addr:place": "CLN 303", "amenity": "cafe", "internet_access": "wlan", "internet_access:fee": "no", "name": "Caramella", "opening_hours": "Mo-Su 07:30-21:00", "smoking": "no", "website": "http://www.caramellaconfeitaria.com.br/", "wheelchair": "yes"}}, "geometry": {"type": "Point", "coordinates": [-47.8860998, -15.7806286]}}, {"type": "Feature", "properties": {"type": "node", "id": 3222516875, "tags": {"addr:place": "CLN 303", "amenity": "cafe", "internet_access": "wlan", "name": "Martinica Caf\u00e9", "opening_hours": "Mo-Fr 11:00-01:00; Sa 17:00-01:00; Su 18:00-01:00", "phone": "+55 61 33262357"}}, "geometry": {"type": "Point", "coordinates": [-47.8847823, -15.7805371]}}, {"type": "Feature", "properties": {"type": "node", "id": 3223614838, "tags": {"amenity": "cafe", "name": "Torteria di Lorenza"}}, "geometry": {"type": "Point", "coordinates": [-47.8870925, -15.7451711]}}, {"type": "Feature", "properties": {"type": "node", "id": 3230418026, "tags": {"addr:city": "Bras\u00edlia", "addr:housenumber": "Loja 56", "addr:postcode": "70722-520", "addr:street": "CLN 102 Bloco B", "addr:suburb": "Asa Norte", "amenity": "cafe", "internet_access": "wlan", "name": "Objeto Encontrado", "opening_hours": "Mo-Sa 12:00-23:00", "phone": "+55 61 3081-8383", "smoking": "no", "website": "http://objetoencontrado.com.br"}}, "geometry": {"type": "Point", "coordinates": [-47.8829046, -15.7832184]}}, {"type": "Feature", "properties": {"type": "node", "id": 3231952883, "tags": {"amenity": "cafe", "cuisine": "french", "name": "Daniel Briand", "opening_hours": "Tu-Fr 09:00-22:00; Sa 09:30-22:00; Su 08:00-22:00", "phone": "+55 61 33261135", "website": "https://www.cafedanielbriand.com/"}}, "geometry": {"type": "Point", "coordinates": [-47.8827129, -15.7770016]}}, {"type": "Feature", "properties": {"type": "node", "id": 3324092861, "tags": {"amenity": "cafe", "internet_access": "wlan", "name": "D'Vilella", "wheelchair": "yes"}}, "geometry": {"type": "Point", "coordinates": [-47.8903219, -15.756386]}}, {"type": "Feature", "properties": {"type": "node", "id": 3334254945, "tags": {"amenity": "cafe", "diet:vegan": "only", "name": "Canelle Confeitaria", "opening_hours": "Tu-Sa 10:00-22:00;Su 12:00-20:00", "phone": "+55 61 30372422"}}, "geometry": {"type": "Point", "coordinates": [-47.8874166, -15.7454249]}}, {"type": "Feature", "properties": {"type": "node", "id": 3334254946, "tags": {"amenity": "cafe", "name": "Florisa Caf\u00e9", "opening_hours": "Mo-Sa 08:00-21:00", "phone": "+55 61 32028882"}}, "geometry": {"type": "Point", "coordinates": [-47.8929929, -15.7403494]}}, {"type": "Feature", "properties": {"type": "node", "id": 3358345330, "tags": {"addr:city": "Brasilia", "addr:street": "CLN 202 Bloco A", "addr:suburb": "Asa Norte", "amenity": "cafe", "internet_access": "wlan", "name": "Caf\u00e9 Cristina Colina da Pedra", "opening_hours": "Su 12:00-19:00; Mo-Sa 08:00-19:00"}}, "geometry": {"type": "Point", "coordinates": [-47.8785943, -15.7833159]}}, {"type": "Feature", "properties": {"type": "node", "id": 3362305606, "tags": {"amenity": "cafe", "diet:gluten_free": "yes", "diet:vegan": "yes", "name": "Bioon Caf\u00e9"}}, "geometry": {"type": "Point", "coordinates": [-47.8851897, -15.7804074]}}, {"type": "Feature", "properties": {"type": "node", "id": 3362308337, "tags": {"amenity": "cafe", "cuisine": "arab", "name": "Caf\u00e9 com Caf\u00e9"}}, "geometry": {"type": "Point", "coordinates": [-47.8862323, -15.7809705]}}, {"type": "Feature", "properties": {"type": "node", "id": 3364780124, "tags": {"amenity": "cafe", "name": "Dylan Cafe Bakery"}}, "geometry": {"type": "Point", "coordinates": [-47.9225416, -15.8278397]}}, {"type": "Feature", "properties": {"type": "node", "id": 3451247095, "tags": {"amenity": "cafe", "name": "Vincent Ch\u00e1s e Caf\u00e9s"}}, "geometry": {"type": "Point", "coordinates": [-47.8805597, -15.75974]}}, {"type": "Feature", "properties": {"type": "node", "id": 3525964203, "tags": {"amenity": "cafe", "name": "Caf\u00e9 das Letras", "wheelchair": "yes"}}, "geometry": {"type": "Point", "coordinates": [-47.8701905, -15.7649188]}}, {"type": "Feature", "properties": {"type": "node", "id": 3634570440, "tags": {"amenity": "cafe", "name": "Rappot"}}, "geometry": {"type": "Point", "coordinates": [-47.8852709, -15.8044722]}}, {"type": "Feature", "properties": {"type": "node", "id": 3634570442, "tags": {"amenity": "cafe", "name": "Caf\u00e9 do Ponto"}}, "geometry": {"type": "Point", "coordinates": [-47.8851878, -15.80452]}}, {"type": "Feature", "properties": {"type": "node", "id": 3634570451, "tags": {"amenity": "cafe", "name": "Cristina Caf\u00e9s", "website": "http://cafecristina.com.br"}}, "geometry": {"type": "Point", "coordinates": [-47.8846875, -15.8048503]}}, {"type": "Feature", "properties": {"type": "node", "id": 3645307602, "tags": {"amenity": "cafe", "name": "Caf\u00e9 Bem Casado", "opening_hours": "Mo-Sa 09:00-19:30", "website": "http://cafebemcasado.com.br"}}, "geometry": {"type": "Point", "coordinates": [-47.8896497, -15.7626851]}}, {"type": "Feature", "properties": {"type": "node", "id": 3768730374, "tags": {"amenity": "cafe", "name": "Rosa's Caf\u00e9"}}, "geometry": {"type": "Point", "coordinates": [-47.8834145, -15.7831717]}}, {"type": "Feature", "properties": {"type": "node", "id": 3900700774, "tags": {"amenity": "cafe", "name": "Gr\u00e3o Sabor"}}, "geometry": {"type": "Point", "coordinates": [-47.8916129, -15.7608557]}}, {"type": "Feature", "properties": {"type": "node", "id": 3958863453, "tags": {"amenity": "cafe", "name": "Art Caf\u00e9"}}, "geometry": {"type": "Point", "coordinates": [-47.8826614, -15.7877449]}}, {"type": "Feature", "properties": {"type": "node", "id": 3958863455, "tags": {"amenity": "cafe", "name": "Tomilla Caf\u00e9", "wheelchair": "yes"}}, "geometry": {"type": "Point", "coordinates": [-47.8828056, -15.7871193]}}, {"type": "Feature", "properties": {"type": "node", "id": 3971324159, "tags": {"amenity": "cafe", "name": "Especiarias de Minas"}}, "geometry": {"type": "Point", "coordinates": [-47.8828911, -15.7873255]}}, {"type": "Feature", "properties": {"type": "node", "id": 3971325069, "tags": {"amenity": "cafe", "brand": "Fran's Caf\u00e9", "brand:wikidata": "Q62075645", "cuisine": "coffee_shop", "name": "Fran's Caf\u00e9", "takeaway": "yes"}}, "geometry": {"type": "Point", "coordinates": [-47.8848583, -15.783933]}}, {"type": "Feature", "properties": {"type": "node", "id": 3973507957, "tags": {"amenity": "cafe", "name": "C\u00f3pia com Caf\u00e9"}}, "geometry": {"type": "Point", "coordinates": [-47.8881001, -15.7812333]}}, {"type": "Feature", "properties": {"type": "node", "id": 4081269529, "tags": {"addr:city": "Bras\u00edlia", "addr:street": "CLN 404", "addr:suburb": "Asa Norte", "amenity": "cafe", "internet_access": "yes", "internet_access:fee": "no", "name": "Los Baristas", "opening_hours": "Mo-Fr 12:00-20:00; Sa 10:00-19:00", "outdoor_seating": "yes", "smoking": "no", "website": "https://www.losbaristas.com/"}}, "geometry": {"type": "Point", "coordinates": [-47.876547, -15.773612]}}, {"type": "Feature", "properties": {"type": "node", "id": 4081269533, "tags": {"amenity": "cafe", "name": "Chateau Brasil"}}, "geometry": {"type": "Point", "coordinates": [-47.8849886, -15.790137]}}, {"type": "Feature", "properties": {"type": "node", "id": 4119072799, "tags": {"amenity": "cafe", "level": "1", "name": "Quintal f/508", "opening_hours": "Mo-Fr 15:30-20:30; Sa 09:00-12:00", "outdoor_seating": "no", "phone": "+55 61 33473985;+55 61 91400303", "website": "https://f508.com.br/quintal/"}}, "geometry": {"type": "Point", "coordinates": [-47.8835617, -15.7470135]}}, {"type": "Feature", "properties": {"type": "node", "id": 4156321058, "tags": {"amenity": "cafe", "name": "Chico Mineiro Confeitaria e Caf\u00e9"}}, "geometry": {"type": "Point", "coordinates": [-47.8840073, -15.7770087]}}, {"type": "Feature", "properties": {"type": "node", "id": 4187993132, "tags": {"amenity": "cafe", "name": "Caf\u00e9 Sarah Kubitscheck", "opening_hours": "Mo-Fr 09:00-20:00; Sa 08:00-17:00", "phone": "+55 61 39637373"}}, "geometry": {"type": "Point", "coordinates": [-47.8856309, -15.7746238]}}, {"type": "Feature", "properties": {"type": "node", "id": 4207805094, "tags": {"amenity": "cafe", "name": "Caf\u00e9 da V\u00f3 Maria"}}, "geometry": {"type": "Point", "coordinates": [-47.881545, -15.763683]}}, {"type": "Feature", "properties": {"type": "node", "id": 4330783337, "tags": {"amenity": "cafe", "name": "Magrelas Caf\u00e9"}}, "geometry": {"type": "Point", "coordinates": [-47.8998423, -15.8192743]}}, {"type": "Feature", "properties": {"type": "node", "id": 4433154149, "tags": {"amenity": "cafe", "cuisine": "french", "name": "Le Jardin"}}, "geometry": {"type": "Point", "coordinates": [-47.9078076, -15.8097643]}}, {"type": "Feature", "properties": {"type": "node", "id": 4471601993, "tags": {"amenity": "cafe", "internet_access": "yes", "internet_access:fee": "no", "name": "Ernesto Caf\u00e9s Especiais", "name:pt": "Ernesto Caf\u00e9s Especiais", "opening_hours": "Mo-Su 07:00-22:00", "outdoor_seating": "yes", "smoking": "no"}}, "geometry": {"type": "Point", "coordinates": [-47.9242343, -15.8307026]}}, {"type": "Feature", "properties": {"type": "node", "id": 4558361197, "tags": {"amenity": "cafe", "name": "Rei do Mate", "name:pt": "Rei do Mate"}}, "geometry": {"type": "Point", "coordinates": [-47.8972574, -15.7355928]}}, {"type": "Feature", "properties": {"type": "node", "id": 4558399090, "tags": {"amenity": "cafe", "name": "Croissanterie caf\u00e9 | bistr\u00f4"}}, "geometry": {"type": "Point", "coordinates": [-47.8892686, -15.7390367]}}, {"type": "Feature", "properties": {"type": "node", "id": 4585501235, "tags": {"amenity": "cafe", "brand": "Fran's Caf\u00e9", "brand:wikidata": "Q62075645", "cuisine": "coffee_shop", "name": "Fran's Caf\u00e9", "takeaway": "yes"}}, "geometry": {"type": "Point", "coordinates": [-47.8888328, -15.786565]}}, {"type": "Feature", "properties": {"type": "node", "id": 4585501236, "tags": {"amenity": "cafe", "name": "Martinica"}}, "geometry": {"type": "Point", "coordinates": [-47.8890018, -15.7866114]}}, {"type": "Feature", "properties": {"type": "node", "id": 4585501245, "tags": {"amenity": "cafe", "cuisine": "chocolate", "name": "Kopenhagen"}}, "geometry": {"type": "Point", "coordinates": [-47.8892057, -15.7871431]}}, {"type": "Feature", "properties": {"type": "node", "id": 4585529781, "tags": {"amenity": "cafe", "level": "1", "name": "Grande Caf\u00e9"}}, "geometry": {"type": "Point", "coordinates": [-47.8840682, -15.7871869]}}, {"type": "Feature", "properties": {"type": "node", "id": 4591337312, "tags": {"amenity": "cafe", "name": "Rei do P\u00e3o de Queijo"}}, "geometry": {"type": "Point", "coordinates": [-47.8933428, -15.7501975]}}, {"type": "Feature", "properties": {"type": "node", "id": 4591337315, "tags": {"amenity": "cafe", "name": "Iaga Arte Caf\u00e9"}}, "geometry": {"type": "Point", "coordinates": [-47.8931995, -15.7499358]}}, {"type": "Feature", "properties": {"type": "node", "id": 4608731433, "tags": {"amenity": "cafe", "level": "0", "name": "Cr\u00e9pe de Paris"}}, "geometry": {"type": "Point", "coordinates": [-47.88463, -15.7868298]}}, {"type": "Feature", "properties": {"type": "node", "id": 4693815344, "tags": {"amenity": "cafe", "name": "Kopenhagen"}}, "geometry": {"type": "Point", "coordinates": [-47.8996803, -15.7334022]}}, {"type": "Feature", "properties": {"type": "node", "id": 4825889842, "tags": {"amenity": "cafe", "level": "0", "name": "Casa do P\u00e3o de Queijo"}}, "geometry": {"type": "Point", "coordinates": [-47.8987679, -15.7337708]}}, {"type": "Feature", "properties": {"type": "node", "id": 4897810422, "tags": {"amenity": "cafe", "cuisine": "arab", "name": "Snob", "name:pt": "Snob"}}, "geometry": {"type": "Point", "coordinates": [-47.8785977, -15.759575]}}, {"type": "Feature", "properties": {"type": "node", "id": 4908113823, "tags": {"amenity": "cafe", "cuisine": "chocolate", "name": "Lugano"}}, "geometry": {"type": "Point", "coordinates": [-47.8891559, -15.7526495]}}, {"type": "Feature", "properties": {"type": "node", "id": 4908141129, "tags": {"amenity": "cafe", "level": "2", "name": "Gaudi Caf\u00e9"}}, "geometry": {"type": "Point", "coordinates": [-47.8831845, -15.7906235]}}, {"type": "Feature", "properties": {"type": "node", "id": 4957238257, "tags": {"amenity": "cafe", "cuisine": "nordestina", "name": "Caf\u00e9 e um Ch\u00earo", "opening_hours": "Mo-Sa 07:00-22:00", "website": "http://www.cafeeumchero.com.br"}}, "geometry": {"type": "Point", "coordinates": [-47.8877238, -15.7591758]}}, {"type": "Feature", "properties": {"type": "node", "id": 5029115521, "tags": {"amenity": "cafe", "name": "Oficina Caf\u00e9", "name:pt": "Oficina Caf\u00e9"}}, "geometry": {"type": "Point", "coordinates": [-47.889139, -15.780834]}}, {"type": "Feature", "properties": {"type": "node", "id": 5053803039, "tags": {"amenity": "cafe", "contact:instagram": "https://www.instagram.com/antonietacafe/", "internet_access": "wlan", "internet_access:fee": "no", "name": "Antonieta Caf\u00e9", "opening_hours": "Mo-Fr 13:00-21:00; Sa 14:00-20:00", "outdoor_seating": "no", "smoking": "no", "wheelchair": "yes"}}, "geometry": {"type": "Point", "coordinates": [-47.8926765, -15.7634877]}}, {"type": "Feature", "properties": {"type": "node", "id": 5087302622, "tags": {"amenity": "cafe", "level": "-1", "name": "Labbora Caf\u00e9s Especiais", "opening_hours": "Mo-Fr 10:00-19:00"}}, "geometry": {"type": "Point", "coordinates": [-47.8866603, -15.7452496]}}, {"type": "Feature", "properties": {"type": "node", "id": 5087302722, "tags": {"amenity": "cafe", "cuisine": "hungarian", "name": "Duna Casa H\u00fangara", "name:pt": "Duna Casa H\u00fangara"}}, "geometry": {"type": "Point", "coordinates": [-47.8870871, -15.7446725]}}, {"type": "Feature", "properties": {"type": "node", "id": 5124575930, "tags": {"amenity": "cafe", "internet_access": "wlan", "name": "Caf\u00e9 Civit\u00e1", "name:pt": "Caf\u00e9 Civit\u00e1"}}, "geometry": {"type": "Point", "coordinates": [-47.8927946, -15.7962238]}}, {"type": "Feature", "properties": {"type": "node", "id": 5125114322, "tags": {"amenity": "cafe", "brand": "Fran's Caf\u00e9", "brand:wikidata": "Q62075645", "cuisine": "coffee_shop", "name": "Fran's Caf\u00e9", "takeaway": "yes"}}, "geometry": {"type": "Point", "coordinates": [-47.8924834, -15.7953783]}}, {"type": "Feature", "properties": {"type": "node", "id": 5135659820, "tags": {"amenity": "cafe"}}, "geometry": {"type": "Point", "coordinates": [-47.8743398, -15.7686257]}}, {"type": "Feature", "properties": {"type": "node", "id": 5225539396, "tags": {"amenity": "cafe", "name": "Nosso Quadrado"}}, "geometry": {"type": "Point", "coordinates": [-47.8931241, -15.8028809]}}, {"type": "Feature", "properties": {"type": "node", "id": 5230076441, "tags": {"amenity": "cafe", "brand": "Fran's Caf\u00e9", "brand:wikidata": "Q62075645", "cuisine": "coffee_shop", "name": "Fran's Caf\u00e9", "takeaway": "yes"}}, "geometry": {"type": "Point", "coordinates": [-47.9100841, -15.8103402]}}, {"type": "Feature", "properties": {"type": "node", "id": 5299457845, "tags": {"amenity": "cafe", "name": "Uai Bezinha!"}}, "geometry": {"type": "Point", "coordinates": [-47.9121922, -15.8195535]}}, {"type": "Feature", "properties": {"type": "node", "id": 5353491828, "tags": {"amenity": "cafe", "name": "Gr\u00e3o Espresso"}}, "geometry": {"type": "Point", "coordinates": [-47.8749357, -15.8184198]}}, {"type": "Feature", "properties": {"type": "node", "id": 5366399095, "tags": {"amenity": "cafe", "internet_access": "wlan", "name": "Ateli\u00ea Cuisine Deh", "opening_hours": "Mo-Fr 08:30-20:00; Sa 10:00-18:00"}}, "geometry": {"type": "Point", "coordinates": [-47.8846808, -15.7514698]}}, {"type": "Feature", "properties": {"type": "node", "id": 5381047922, "tags": {"amenity": "cafe", "name": "Da Vici Cafeteria"}}, "geometry": {"type": "Point", "coordinates": [-47.9130762, -15.8136655]}}, {"type": "Feature", "properties": {"type": "node", "id": 5416977721, "tags": {"addr:street": "SHN Quadra 1", "amenity": "cafe", "name": "Melbourne Caf\u00e9 & Co.", "opening_hours": "Mo-Fr 08:15-17:30", "outdoor_seating": "yes", "website": "http://www.olamelbourne.com.br/"}}, "geometry": {"type": "Point", "coordinates": [-47.8846678, -15.7902403]}}, {"type": "Feature", "properties": {"type": "node", "id": 5436122015, "tags": {"addr:city": "Bras\u00edlia", "addr:housenumber": "Loja 07", "addr:street": "CLS 114 Bloco B", "amenity": "cafe", "internet_access": "wlan", "internet_access:fee": "no", "name": "Belini Caf\u00e9", "opening_hours": "Mo-Sa 08:00-23:00; Su 08:00-22:00", "outdoor_seating": "yes", "payment:cash": "yes", "payment:credit_cards": "yes", "smoking": "no", "website": "https://pt-br.facebook.com/pg/belinicafe/about/?ref=page_internal"}}, "geometry": {"type": "Point", "coordinates": [-47.9187069, -15.8273745]}}, {"type": "Feature", "properties": {"type": "node", "id": 5470850733, "tags": {"amenity": "cafe", "name": "Sincera"}}, "geometry": {"type": "Point", "coordinates": [-47.8900604, -15.7526191]}}, {"type": "Feature", "properties": {"type": "node", "id": 5650571821, "tags": {"addr:housenumber": "Bloco A Loja 13", "addr:street": "SQS 410", "amenity": "cafe", "cuisine": "cake;coffee_shop", "email": "contato@cioccolateria.com.br", "internet_access": "wlan", "name": "Cioccolateria Doceria e Caf\u00e9", "opening_hours": "Mo-Fr 10:00-19:00; Sa 09:00-17:00", "phone": "+55 61 3242 6399", "website": "http://www.cioccolateria.com.br"}}, "geometry": {"type": "Point", "coordinates": [-47.906648, -15.8263217]}}, {"type": "Feature", "properties": {"type": "node", "id": 5766574433, "tags": {"addr:city": "Bras\u00edlia", "addr:street": "CLN 103/104", "amenity": "cafe", "internet_access": "yes", "internet_access:fee": "no", "name": "Quanto", "opening_hours": "Mo-Fr 11:00-21:00, Sa 09:00-21:00", "outdoor_seating": "yes", "smoking": "no"}}, "geometry": {"type": "Point", "coordinates": [-47.8826493, -15.7775553]}}, {"type": "Feature", "properties": {"type": "node", "id": 5766574435, "tags": {"amenity": "cafe", "name": "Aha!", "smoking": "no", "website": "http://www.ahacafe.com.br"}}, "geometry": {"type": "Point", "coordinates": [-47.8786953, -15.776653]}}, {"type": "Feature", "properties": {"type": "node", "id": 5856741812, "tags": {"addr:street": "CLRN 716", "amenity": "cafe", "internet_access": "yes", "internet_access:fee": "no", "name": "Vai ter ch\u00e1", "outdoor_seating": "yes", "shop": "tea", "smoking": "no"}}, "geometry": {"type": "Point", "coordinates": [-47.8994946, -15.7398592]}}, {"type": "Feature", "properties": {"type": "node", "id": 6005691723, "tags": {"addr:street": "CLN 107/108", "amenity": "cafe", "internet_access": "yes", "internet_access:fee": "no", "name": "Ernesto Caf\u00e9s Especiais", "opening_hours": "Mo-Su 07:00-22:00", "outdoor_seating": "yes", "smoking": "no"}}, "geometry": {"type": "Point", "coordinates": [-47.8852493, -15.7645578]}}, {"type": "Feature", "properties": {"type": "node", "id": 6207544093, "tags": {"amenity": "cafe", "cuisine": "sandwiches", "internet_access": "no", "internet_access:fee": "no", "name": "Caf\u00e9 da Fiocruz", "outdoor_seating": "no", "smoking": "no", "takeaway": "yes"}}, "geometry": {"type": "Point", "coordinates": [-47.8712547, -15.7712064]}}, {"type": "Feature", "properties": {"type": "node", "id": 6456386661, "tags": {"amenity": "cafe", "brand": "Fran's Caf\u00e9", "brand:wikidata": "Q62075645", "cuisine": "coffee_shop", "name": "Fran's Caf\u00e9", "outdoor_seating": "yes", "takeaway": "yes"}}, "geometry": {"type": "Point", "coordinates": [-47.8938988, -15.8151596]}}, {"type": "Feature", "properties": {"type": "node", "id": 6591961959, "tags": {"amenity": "cafe", "name": "Sterna Caf\u00e9"}}, "geometry": {"type": "Point", "coordinates": [-47.8900077, -15.7808206]}}, {"type": "Feature", "properties": {"type": "node", "id": 6632677485, "tags": {"addr:postcode": "70742-530", "addr:street": "SQN 106 Bloco A", "amenity": "cafe", "name": "QualyCream", "opening_hours": "Mo-Fr 08:00-18:00; Sa 09:00-13:00", "phone": "+55 61 3033 1010", "website": "http://qualycream.com.br"}}, "geometry": {"type": "Point", "coordinates": [-47.8845249, -15.7708562]}}, {"type": "Feature", "properties": {"type": "node", "id": 7705116886, "tags": {"amenity": "cafe"}}, "geometry": {"type": "Point", "coordinates": [-47.9289296, -15.8256478]}}, {"type": "Feature", "properties": {"type": "node", "id": 7705116908, "tags": {"amenity": "cafe"}}, "geometry": {"type": "Point", "coordinates": [-47.9294188, -15.8268004]}}, {"type": "Feature", "properties": {"type": "node", "id": 7949383205, "tags": {"addr:city": "Bras\u00edlia", "addr:street": "SCRN 712/713, bloco E", "amenity": "cafe", "name": "Amarelinha"}}, "geometry": {"type": "Point", "coordinates": [-47.8975325, -15.7518287]}}, {"type": "Feature", "properties": {"type": "node", "id": 8435477631, "tags": {"addr:housenumber": "Bloco D Loja x", "addr:street": "CLS 108", "amenity": "cafe", "name": "Lugano"}}, "geometry": {"type": "Point", "coordinates": [-47.902979, -15.8152087]}}]}